{
  "type": "FeatureCollection",
  "features": [
    {
      "type": "Feature",
      "properties": {
        "parcelId": "R001",
        "address": "123 Main Street",
        "owner": "John Smith",
        "propertyType": "Residential",
        "neighborhood": "101",
        "designStyle": "Colonial",
        "acreage": 0.25,
        "bedrooms": 3,
        "bathrooms": 2,
        "sqft": 2000,
        "yearBuilt": 1995,
        "assessment2020": 250000,
        "assessment2025": 320000
      },
      "geometry": {
        "type": "Point",
        "coordinates": [-72.729, 41.698]
      }
    },
    {
      "type": "Feature",
      "properties": {
        "parcelId": "R002",
        "address": "456 Oak Avenue",
        "owner": "Jane Doe",
        "propertyType": "Residential",
        "neighborhood": "102",
        "designStyle": "Ranch",
        "acreage": 0.35,
        "bedrooms": 4,
        "bathrooms": 2.5,
        "sqft": 2400,
        "yearBuilt": 2005,
        "assessment2020": 280000,
        "assessment2025": 355000
      },
      "geometry": {
        "type": "Point",
        "coordinates": [-72.735, 41.701]
      }
    },
    {
      "type": "Feature",
      "properties": {
        "parcelId": "R003",
        "address": "789 Elm Street",
        "owner": "Bob Johnson",
        "propertyType": "Residential",
        "neighborhood": "103",
        "designStyle": "Victorian",
        "acreage": 0.50,
        "bedrooms": 5,
        "bathrooms": 3,
        "sqft": 3200,
        "yearBuilt": 1920,
        "assessment2020": 310000,
        "assessment2025": 395000
      },
      "geometry": {
        "type": "Point",
        "coordinates": [-72.733, 41.696]
      }
    },
    {
      "type": "Feature",
      "properties": {
        "parcelId": "C001",
        "address": "100 Condo Lane Unit 1A",
        "owner": "Mary Wilson",
        "propertyType": "Condo",
        "complex": "Maple Grove",
        "style": "Condominium",
        "location": "First Floor",
        "sqft": 1200,
        "bedrooms": 2,
        "bathrooms": 2,
        "yearBuilt": 2010,
        "assessment2020": 180000,
        "assessment2025": 245000
      },
      "geometry": {
        "type": "Point",
        "coordinates": [-72.730, 41.700]
      }
    },
    {
      "type": "Feature",
      "properties": {
        "parcelId": "C002",
        "address": "100 Condo Lane Unit 2B",
        "owner": "Tom Brown",
        "propertyType": "Condo",
        "complex": "Maple Grove",
        "style": "Townhouse",
        "location": "End Unit",
        "sqft": 1500,
        "bedrooms": 3,
        "bathrooms": 2.5,
        "yearBuilt": 2010,
        "assessment2020": 210000,
        "assessment2025": 285000
      },
      "geometry": {
        "type": "Point",
        "coordinates": [-72.730, 41.700]
      }
    },
    {
      "type": "Feature",
      "properties": {
        "parcelId": "COM001",
        "address": "500 Business Parkway",
        "owner": "ABC Corporation",
        "propertyType": "Commercial",
        "zone": "Business",
        "buildingClass": "Masonry",
        "useCategory": "Office",
        "sqft": 15000,
        "yearBuilt": 2000,
        "assessment2020": 1500000,
        "assessment2025": 1850000
      },
      "geometry": {
        "type": "Point",
        "coordinates": [-72.728, 41.695]
      }
    },
    {
      "type": "Feature",
      "properties": {
        "parcelId": "COM002",
        "address": "750 Industrial Drive",
        "owner": "XYZ Industries",
        "propertyType": "Commercial",
        "zone": "Industrial",
        "buildingClass": "Steel",
        "useCategory": "Industrial",
        "sqft": 35000,
        "yearBuilt": 1995,
        "assessment2020": 2800000,
        "assessment2025": 3500000
      },
      "geometry": {
        "type": "Point",
        "coordinates": [-72.740, 41.693]
      }
    },
    {
      "type": "Feature",
      "properties": {
        "parcelId": "V001",
        "address": "Lot 5 Development Road",
        "owner": "Land Holdings LLC",
        "propertyType": "Vacant",
        "neighborhood": "105",
        "zone": "Residential",
        "useCategory": "Residential",
        "acreage": 2.5,
        "assessment2020": 95000,
        "assessment2025": 115000
      },
      "geometry": {
        "type": "Point",
        "coordinates": [-72.737, 41.702]
      }
    },
    {
      "type": "Feature",
      "properties": {
        "parcelId": "V002",
        "address": "Vacant Lot Berlin Turnpike",
        "owner": "Commercial Developers Inc",
        "propertyType": "Vacant",
        "neighborhood": "106",
        "zone": "Commercial Development",
        "useCategory": "Commercial",
        "acreage": 5.0,
        "assessment2020": 350000,
        "assessment2025": 425000
      },
      "geometry": {
        "type": "Point",
        "coordinates": [-72.725, 41.694]
      }
    }
  ]
}
